STARLINK-35759          
1 69246U 26117J   26168.67478256  .00198956  00000+0  93579-3 0  9995
2 69246  53.1569 241.0219 0000787  93.2044 266.9069 15.82057442  3055
STARLINK-37238          
1 69247U 26117K   26168.67034131  .00120697  00000+0  57477-3 0  9990
2 69247  53.1569 240.9915 0000973  98.1029 262.0105 15.82036333  3055
STARLINK-37412          
1 69248U 26117L   26168.66697015  .00143764  00000+0  68183-3 0  9992
2 69248  53.1569 240.9688 0000941 105.8871 254.2256 15.82046207  3050
STARLINK-37398          
1 69249U 26117M   26168.67162856  .00122908  00000+0  61600-3 0  9998
2 69249  53.1576 241.0003 0000795  92.0272 268.0842 15.80923048  3050
STARLINK-37499          
1 69250U 26117N   26169.42335346  .00279490  00000+0  13064-2 0  9999
2 69250  53.1563 237.1512 0000912  70.0225 290.0896 15.81968808  3175
STARLINK-37489          
1 69251U 26117P   26168.66349250  .00206986  00000+0  97205-3 0  9994
2 69251  53.1571 240.9461 0000794 102.7922 257.3191 15.82067811  3051
STARLINK-37434          
1 69252U 26117Q   26169.48179806  .00332686  00000+0  15431-2 0  9991
2 69252  53.1566 236.8020 0001188  78.2122 281.9035 15.81991877  3189
STARLINK-37368          
1 69253U 26117R   26169.47505508  .00235790  00000+0  11065-2 0  9990
2 69253  53.1570 236.7558 0000436   2.1679 357.9346 15.82002073  3189
STARLINK-37517          
1 69254U 26117S   26169.53690709  .00298563  00000+0  13868-2 0  9996
2 69254  53.1564 236.4298 0000573 265.6130  94.4828 15.82052229  3198
STARLINK-37378          
1 69255U 26117T   26169.47340454  .00211044  00000+0  99420-3 0  9997
2 69255  53.1568 236.7448 0002331 301.5590  58.5205 15.81988256  3183
STARLINK-37396          
1 69256U 26117U   26169.53412059  .00296336  00000+0  13689-2 0  9995
2 69256  53.1561 236.4093 0003180 269.7331  90.3327 15.82175115  3194
STARLINK-37508          
1 69257U 26117V   26169.53723161  .00130280  00000+0  65251-3 0  9993
2 69257  53.1569 236.4296 0001199  95.1877 264.9283 15.80912246  3194
STARLINK-37276          
1 69258U 26117W   26169.33335648 -.00055338  00000+0 -27824-3 0  9997
2 69258  53.1573 237.1329 0001254 110.4662 322.1664 15.80901734  4359
STARLINK-37518          
1 69259U 26117X   26169.51151375  .00249447  00000+0  12214-2 0  9991
2 69259  53.1566 236.2552 0001956   6.0632 354.0414 15.81045726  3195
STARLINK-37478          
1 69260U 26117Y   26169.51173715  .00271160  00000+0  13233-2 0  9994
2 69260  53.1571 236.2570 0001814 341.6553  18.4404 15.81059198  3194
STARLINK-37506          
1 69261U 26117Z   26169.57443028 -.01000288  00000+0 -72847-2 0  9998
2 69261  53.1566 235.9339 0025520  66.3764 293.9932 15.74722838  3201
STARLINK-37503          
1 69262U 26117AA  26169.57421172  .00251751  00000+0  12388-2 0  9999
2 69262  53.1570 235.9337 0001785  31.7792 328.3338 15.80932098  3200
STARLINK-37502          
1 69263U 26117AB  26169.51047538  .00216159  00000+0  10701-2 0  9994
2 69263  53.1572 236.2469 0001049  30.5534 329.5550 15.80902489  3195
STARLINK-37486          
1 69264U 26117AC  26169.50925625  .00219764  00000+0  10813-2 0  9995
2 69264  53.1569 236.2391 0001311 350.0645  10.0352 15.81024711  3197
STARLINK-37435          
1 69265U 26117AD  26169.51074364  .00248678  00000+0  12247-2 0  9991
2 69265  53.1570 236.2476 0001259  18.7065 341.4004 15.80923316  3192
STARLINK-37464          
1 69266U 26117AE  26169.44218160  .00267033  00000+0  12498-2 0  9992
2 69266  53.1571 236.5279 0001828  39.5248 320.5909 15.81973336  3183
KUIPER-00282            
1 69267U 26118A   26169.59013135  .00014943  00000+0  45399-3 0  9992
2 69267  51.8600  46.8140 0012088 186.8461 173.2361 15.34210940  4194
KUIPER-00383            
1 69268U 26118B   26169.52186529  .00048054  00000+0  14244-2 0  9998
2 69268  51.8616  47.1069 0011030 191.5532 168.5202 15.34313414  4184
KUIPER-00527            
1 69269U 26118C   26169.58191843  .00015582  00000+0  46490-3 0  9999
2 69269  51.8628  46.7655 0010090 178.9980 181.1027 15.34769012  4191
KUIPER-00562            
1 69270U 26118D   26169.54524537  .00012830  00000+0  34037-3 0  9994
2 69270  51.8720  46.5311 0001707 119.4253 240.6904 15.38656129  4194
KUIPER-00570            
1 69271U 26118E   26169.58436591  .00015421  00000+0  46199-3 0  9992
2 69271  51.8587  46.7755 0011592 189.8745 170.2014 15.34634179  4197
KUIPER-00572            
1 69272U 26118F   26169.56594476  .00009892  00000+0  27887-3 0  9996
2 69272  51.8675  46.6689 0007142 175.5999 184.5051 15.37036795  4192
KUIPER-00581            
1 69273U 26118G   26169.57021071  .00009945  00000+0  28353-3 0  9992
2 69273  51.8658  46.6948 0008812 179.4656 180.6341 15.36668485  4285
KUIPER-00584            
1 69274U 26118H   26169.58712032 -.00554662  00000+0 -18184-1 0  9990
2 69274  51.8616  46.7960 0011839 171.4490 188.6699 15.33313219  4199
KUIPER-00587            
1 69275U 26118J   26169.56952179  .00009732  00000+0  27733-3 0  9990
2 69275  51.8632  46.6874 0008091 182.4919 177.6028 15.36714409  4198
