OBJECT_NAME,OBJECT_ID,EPOCH,MEAN_MOTION,ECCENTRICITY,INCLINATION,RA_OF_ASC_NODE,ARG_OF_PERICENTER,MEAN_ANOMALY,EPHEMERIS_TYPE,CLASSIFICATION_TYPE,NORAD_CAT_ID,ELEMENT_SET_NO,REV_AT_EPOCH,BSTAR,MEAN_MOTION_DOT,MEAN_MOTION_DDOT
STARLINK-35759,2026-117J,2026-06-17T16:11:41.213184,15.82057442,.00007879,53.1569,241.0219,93.2044,266.9069,0,U,69246,999,305,.93579314E-3,.198956E-2,0
STARLINK-37238,2026-117K,2026-06-17T16:05:17.489184,15.82036333,.00009733,53.1569,240.9915,98.1029,262.0105,0,U,69247,999,305,.57476999E-3,.120697E-2,0
STARLINK-37412,2026-117L,2026-06-17T16:00:26.220960,15.82046207,.00009417,53.1569,240.9688,105.8871,254.2256,0,U,69248,999,305,.68183075E-3,.143764E-2,0
STARLINK-37398,2026-117M,2026-06-17T16:07:08.707584,15.80923048,.00007952,53.1576,241.0003,92.0272,268.0842,0,U,69249,999,305,.61600197E-3,.122908E-2,0
STARLINK-37499,2026-117N,2026-06-18T10:09:37.738944,15.81968808,.00009121,53.1563,237.1512,70.0225,290.0896,0,U,69250,999,317,.13063554E-2,.27949E-2,0
STARLINK-37489,2026-117P,2026-06-17T15:55:25.752000,15.82067811,.00007946,53.1571,240.9461,102.7922,257.3191,0,U,69251,999,305,.97205254E-3,.206986E-2,0
STARLINK-37434,2026-117Q,2026-06-18T11:33:47.352384,15.81991877,.00011886,53.1566,236.8020,78.2122,281.9035,0,U,69252,999,318,.15431095E-2,.332686E-2,0
STARLINK-37368,2026-117R,2026-06-18T11:24:04.758912,15.82002073,.0000436,53.1570,236.7558,2.1679,357.9346,0,U,69253,999,318,.11065112E-2,.23579E-2,0
STARLINK-37517,2026-117S,2026-06-18T12:53:08.772576,15.82052229,.00005733,53.1564,236.4298,265.6130,94.4828,0,U,69254,999,319,.13867576E-2,.298563E-2,0
STARLINK-37378,2026-117T,2026-06-18T11:21:42.152256,15.81988256,.00023319,53.1568,236.7448,301.5590,58.5205,0,U,69255,999,318,.99420409E-3,.211044E-2,0
STARLINK-37396,2026-117U,2026-06-18T12:49:08.018976,15.82175115,.00031807,53.1561,236.4093,269.7331,90.3327,0,U,69256,999,319,.13688679E-2,.296336E-2,0
STARLINK-37508,2026-117V,2026-06-18T12:53:36.811104,15.80912246,.00011997,53.1569,236.4296,95.1877,264.9283,0,U,69257,999,319,.65250548E-3,.13028E-2,0
STARLINK-37276,2026-117W,2026-06-18T08:00:01.999872,15.80901734,.00012541,53.1573,237.1329,110.4662,322.1664,0,U,69258,999,435,-.27823992E-3,-.55338E-3,0
STARLINK-37518,2026-117X,2026-06-18T12:16:34.788000,15.81045726,.00019566,53.1566,236.2552,6.0632,354.0414,0,U,69259,999,319,.12214296E-2,.249447E-2,0
STARLINK-37478,2026-117Y,2026-06-18T12:16:54.089760,15.81059198,.00018146,53.1571,236.2570,341.6553,18.4404,0,U,69260,999,319,.13232818E-2,.27116E-2,0
STARLINK-37506,2026-117Z,2026-06-18T13:47:10.776192,15.74722838,.00255208,53.1566,235.9339,66.3764,293.9932,0,U,69261,999,320,-.72847342E-2,-.1000288E-1,0
STARLINK-37503,2026-117AA,2026-06-18T13:46:51.892608,15.80932098,.00017856,53.1570,235.9337,31.7792,328.3338,0,U,69262,999,320,.12388204E-2,.251751E-2,0
STARLINK-37502,2026-117AB,2026-06-18T12:15:05.072832,15.80902489,.00010491,53.1572,236.2469,30.5534,329.5550,0,U,69263,999,319,.10700535E-2,.216159E-2,0
STARLINK-37486,2026-117AC,2026-06-18T12:13:19.740000,15.81024711,.00013119,53.1569,236.2391,350.0645,10.0352,0,U,69264,999,319,.10812865E-2,.219764E-2,0
STARLINK-37435,2026-117AD,2026-06-18T12:15:28.250496,15.80923316,.00012598,53.1570,236.2476,18.7065,341.4004,0,U,69265,999,319,.12246805E-2,.248678E-2,0
STARLINK-37464,2026-117AE,2026-06-18T10:36:44.490240,15.81973336,.00018286,53.1571,236.5279,39.5248,320.5909,0,U,69266,999,318,.12498392E-2,.267033E-2,0
KUIPER-00282,2026-118A,2026-06-18T14:09:47.348640,15.34210940,.00120881,51.8600,46.8140,186.8461,173.2361,0,U,69267,999,419,.4539891E-3,.14943E-3,0
KUIPER-00383,2026-118B,2026-06-18T12:31:29.161056,15.34313414,.00110306,51.8616,47.1069,191.5532,168.5202,0,U,69268,999,418,.14244318E-2,.48054E-3,0
KUIPER-00527,2026-118C,2026-06-18T13:57:57.752352,15.34769012,.00100907,51.8628,46.7655,178.9980,181.1027,0,U,69269,999,419,.46490392E-3,.15582E-3,0
KUIPER-00562,2026-118D,2026-06-18T13:05:09.199968,15.38656129,.00017078,51.8720,46.5311,119.4253,240.6904,0,U,69270,999,419,.34036949E-3,.1283E-3,0
KUIPER-00570,2026-118E,2026-06-18T14:01:29.214624,15.34634179,.00115922,51.8587,46.7755,189.8745,170.2014,0,U,69271,999,419,.46198625E-3,.15421E-3,0
KUIPER-00572,2026-118F,2026-06-18T13:34:57.627264,15.37036795,.00071429,51.8675,46.6689,175.5999,184.5051,0,U,69272,999,419,.27887362E-3,.9892E-4,0
KUIPER-00581,2026-118G,2026-06-18T13:41:06.205344,15.36668485,.00088122,51.8658,46.6948,179.4656,180.6341,0,U,69273,999,428,.28352693E-3,.9945E-4,0
KUIPER-00584,2026-118H,2026-06-18T14:05:27.195648,15.33313219,.00118397,51.8616,46.7960,171.4490,188.6699,0,U,69274,999,419,-.18183716E-1,-.554662E-2,0
KUIPER-00587,2026-118J,2026-06-18T13:40:06.682656,15.36714409,.00080915,51.8632,46.6874,182.4919,177.6028,0,U,69275,999,419,.27732757E-3,.9732E-4,0
